IRIDIUM 112             
1 41925U 17003J   25021.80007026  .00000343  00000+0  11528-3 0  9994
2 41925  86.3978 301.9983 0001963  77.9814 282.1601 14.34217623419975
IRIDIUM 111             
1 41926U 17003K   25021.85715761  .00000760  00000+0  26429-3 0  9991
2 41926  86.3979 302.0336 0002089  87.1854 272.9581 14.34221480419967
IRIDIUM 113             
1 42803U 17039A   25021.90688679  .00000369  00000+0  12465-3 0  9998
2 42803  86.4015 175.8353 0001496  88.3277 271.8090 14.34218035397906
IRIDIUM 123             
1 42804U 17039B   25021.94836470  .00000030  00000+0  37325-5 0  9996
2 42804  86.3972 207.2475 0002042  97.4562 262.6866 14.34217574396678
IRIDIUM 120             
1 42805U 17039C   25021.90054588  .00000206  00000+0  66607-4 0  9994
2 42805  86.4003 175.6870 0002268  98.7078 261.4375 14.34217609397894
IRIDIUM 115             
1 42806U 17039D   25021.87295421  .00001122  00000+0  32737-3 0  9998
2 42806  86.4541 175.7556 0001959 107.2167 252.9249 14.43288632400518
IRIDIUM 118             
1 42807U 17039E   25021.91030837  .00000240  00000+0  78626-4 0  9990
2 42807  86.3972 207.2637 0001959  90.4208 269.7212 14.34220794396667
IRIDIUM 117             
1 42808U 17039F   25021.92933691  .00000018  00000+0 -71630-6 0  9996
2 42808  86.3977 207.2185 0001896 101.2889 258.8520 14.34217311396692
